IRIDIUM 36 [-]          
1 24967U 97056C   23264.91901068  .00000783  00000+0  26100-3 0  9995
2 24967  86.3913  79.2836 0001845  90.3969 269.7440 14.36400684361131
IRIDIUM 39 [-]          
1 25042U 97069D   23264.85346949  .00000800  00000+0  21270-3 0  9991
2 25042  86.3899 122.8054 0016399 262.5031  97.4309 14.47357743357155
IRIDIUM 38 [-]          
1 25043U 97069E   23264.66397398  .00000591  00000+0  19346-3 0  9993
2 25043  86.3981 139.9054 0003882  60.6345 299.5240 14.36879894354807
IRIDIUM 42 [-]          
1 25077U 97077A   23265.09579241  .00000590  00000+0  19959-3 0  9995
2 25077  86.3998 145.1173 0002545  72.0714 288.0759 14.35196696350215
IRIDIUM 44 [-]          
1 25078U 97077B   23265.07366497  .00000613  00000+0  19251-3 0  9992
2 25078  86.3950 128.7660 0001606  25.8801 334.2477 14.38979745352504
IRIDIUM 45 [-]          
1 25104U 97082A   23264.72937905  .00014886  00000+0  96493-3 0  9997
2 25104  86.3815 347.9378 0183413 133.4657 228.1996 14.95087621356492
IRIDIUM 24 [-]          
1 25105U 97082B   23264.72801419  .00000761  00000+0  23199-3 0  9998
2 25105  86.3970 348.9544 0012083  22.6151 337.5578 14.40732445351827
IRIDIUM 51 [-]          
1 25262U 98018A   23264.67227221  .00016328  00000+0  91071-3 0  9999
2 25262  86.3986 358.5516 0169412  89.6224 272.4419 15.01931430350842
